CZ-4B R/B               
1 28059U 03049C   17331.23513969  .00000014  00000-0  15112-4 0  9992
2 28059  98.5396 220.2268 0051247 109.4083   1.0430 14.52508577747349
CZ-2C R/B               
1 28222U 04012C   17330.92862964  .00000698  00000-0  46540-4 0  9999
2 28222  97.5474 284.5666 0047889 349.7381  47.8245 15.09501177745127
SL-16 R/B               
1 28353U 04021B   17330.76235180  .00000115  00000-0  85177-4 0  9993
2 28353  70.9998  97.5149 0006717 299.5316  60.5136 14.14197041695133
CZ-2C R/B               
1 28480U 04046B   17331.28073162  .00000007  00000-0  17563-4 0  9993
2 28480  98.1936  56.9551 0143172 103.2077 323.8206 14.25657979677479
ARIANE 5 R/B            
1 28499U 04049H   17331.27490235  .00000070  00000-0  15951-4 0  9998
2 28499  98.0709  55.1653 0093379  49.5716   5.6013 14.79864606698116
CZ-2D R/B               
1 28738U 05024B   17331.54654807  .00000456  00000-0  30776-4 0  9995
2 28738  97.4792   5.0725 0012759 155.9015 204.2815 15.11367311680484
SUZAKU (ASTRO-EII)      
1 28773U 05025A   17331.21774203  .00001244  00000-0  58385-4 0  9994
2 28773  31.3837 318.9121 0004721 185.6872 174.3722 15.16224871682111
ALOS (DAICHI)           
1 28931U 06002A   17331.46210927  .00000237  00000-0  55389-4 0  9993
2 28931  97.8313 350.5516 0001929 109.2786 250.8632 14.62428517631326
H-2A R/B                
1 28932U 06002B   17331.39264676  .00000503  00000-0  52648-4 0  9997
2 28932  98.2140 260.9024 0090481 136.0574 337.4696 14.91561114642138
AKARI (ASTRO-F)         
1 28939U 06005A   17331.50394728  .00003485  00000-0  10571-3 0  9992
2 28939  98.2337 190.2889 0103671 340.3851  19.3411 15.29790465638075
RESURS-DK 1             
1 29228U 06021A   17331.51435491  .00000207  00000-0  22998-4 0  9992
2 29228  69.9368  42.5139 0001422  93.1621 266.9702 15.02252551632620
GENESIS 1               
1 29252U 06029A   17330.79434345  .00000720  00000-0  46129-4 0  9995
2 29252  64.5033 114.3336 0033071 309.8586  49.9628 15.17070856626414
CZ-4B R/B               
1 29507U 06046C   17331.49214653  .00000378  00000-0  34366-4 0  9992
2 29507  97.7793 339.1762 0054183  54.9784 305.6507 15.00161619605520
CZ-2C R/B               
1 31114U 07010B   17330.70043526  .00000008  00000-0  22729-4 0  9993
2 31114  98.3825 224.6130 0060847 103.4602 257.3365 14.19258455550551
COSMO-SKYMED 1          
1 31598U 07023A   17331.48156783  .00000397  00000-0  56484-4 0  9995
2 31598  97.8881 152.8548 0001599  87.4706 272.6726 14.82157660566636
GENESIS 2               
1 31789U 07028A   17330.91762708  .00000741  00000-0  48283-4 0  9990
2 31789  64.5029 152.4615 0012419 219.7758 140.2454 15.16336337573582
COSMOS 2428             
1 31792U 07029A   17331.52841677  .00000343  00000-0  21197-3 0  9998
2 31792  70.9385  69.3042 0006952  15.0902 345.0425 14.12388911537139
SL-16 R/B               
1 31793U 07029B   17331.53158058 -.00000117  00000-0 -36199-4 0  9994
2 31793  70.9779  46.0543 0003018 271.3786 181.8875 14.14395669537812
CZ-4B DEB               
1 33411U 08053D   17315.40721526  .11288782  24851-5  12794-2 0  9999
2 33411  97.3632  13.7523 0007936 279.3174  80.7226 16.36985159499531
KORONAS-FOTON           
1 33504U 09003A   17330.85482121  .00000215  00000-0  98063-5 0  9991
2 33504  82.4438  71.3228 0017832 267.5031  92.4159 15.15017478486102
TIANGONG 1              
1 37820U 11053A   17331.57123843  .00056220  94396-5  15987-3 0  9992
2 37820  42.7543 271.0427 0018304 174.2394 183.3207 15.92925775353889
H-2A R/B                
1 38341U 12025E   17330.84475534  .00000217  00000-0  33165-4 0  9995
2 38341  98.4256  56.8752 0055642 356.4315   3.6493 14.83673959298994
CUSAT 2 & FALCON 9 R/B  
1 39271U 13055G   17330.83272729  .00005437  00000-0  13619-3 0  9992
2 39271  80.9668 184.8040 0624813  80.3525 286.7635 14.39432361216005
ALOS-2                  
1 39766U 14029A   17331.51595342 -.00000095  00000-0 -58178-5 0  9996
2 39766  97.9224  66.5030 0001485  76.7338 283.4054 14.79470160189753
SL-27 R/B               
1 40354U 14084B   17330.93237910  .00001365  00000-0  36187-4 0  9995
2 40354  74.7376 157.2083 0038134  97.7320 262.8224 15.38665370164488
ASTRO-H (HITOMI)        
1 41337U 16012A   17330.93813992  .00000285  00000-0  16313-4 0  9999
2 41337  31.0044 167.4283 0012517 208.6596 151.3351 14.98400160 97351
TIANGONG-2              
1 41765U 16057A   17331.50397255  .00006397  00000-0  82573-4 0  9997
2 41765  42.7824 104.4059 0004472 291.3650 156.6718 15.59648198 68473
SHENZHOU-11 MODULE      
1 41868U 16061G   17330.79342966  .00012120  00000-0  10648-3 0  9999
2 41868  42.7941  95.5133 0002885 193.7243 293.6890 15.68755759 58451
